{"type": "FeatureCollection", "features": [{"type": "Feature", "properties": {"norad_id": 22675, "name": "COSMOS 2251", "group": "cosmos-2251-debris", "lat": 15.42339696029425, "lon": 122.74284498366235, "alt_km": 793.7672126083598, "timestamp": "2025-12-17T10:52:54.744622+00:00", "meta": {"OBJECT_NAME": "COSMOS 2251", "OBJECT_ID": "1993-036A", "EPOCH": "2025-12-17T00:04:12.395136", "MEAN_MOTION": 14.33206159, "ECCENTRICITY": 0.00241438, "INCLINATION": 74.0399, "RA_OF_ASC_NODE": 308.0939, "ARG_OF_PERICENTER": 29.1583, "MEAN_ANOMALY": 331.091, "EPHEMERIS_TYPE": 0, "CLASSIFICATION_TYPE": "U", "NORAD_CAT_ID": 22675, "ELEMENT_SET_NO": 999, "REV_AT_EPOCH": 69834, "BSTAR": 4.8089834e-05, "MEAN_MOTION_DOT": 1.07e-06, "MEAN_MOTION_DDOT": 0}, "tle": {"line1": "1 22675U 93036A   25351.00292124  .00000107  00000+0  48090-4 0  9991", "line2": "2 22675  74.0399 308.0939 0024143  29.1583 331.0910 14.33206159698341"}}, "geometry": {"type": "Point", "coordinates": [122.74284498366235, 15.42339696029425]}}, {"type": "Feature", "properties": {"norad_id": 33757, "name": "COSMOS 2251 DEB", "group": "cosmos-2251-debris", "lat": -11.405473582723902, "lon": 138.31499441544588, "alt_km": 794.9757423716082, "timestamp": "2025-12-17T10:52:54.744646+00:00", "meta": {"OBJECT_NAME": "COSMOS 2251 DEB", "OBJECT_ID": "1993-036E", "EPOCH": "2025-12-16T22:31:42.143808", "MEAN_MOTION": 14.32582147, "ECCENTRICITY": 0.00154142, "INCLINATION": 74.037, "RA_OF_ASC_NODE": 315.944, "ARG_OF_PERICENTER": 328.5473, "MEAN_ANOMALY": 89.7848, "EPHEMERIS_TYPE": 0, "CLASSIFICATION_TYPE": "U", "NORAD_CAT_ID": 33757, "ELEMENT_SET_NO": 999, "REV_AT_EPOCH": 88056, "BSTAR": 4.0004858e-05, "MEAN_MOTION_DOT": 8.3e-07, "MEAN_MOTION_DDOT": 0}, "tle": {"line1": "1 33757U 93036E   25350.93868222  .00000083  00000+0  40005-4 0  9994", "line2": "2 33757  74.0370 315.9440 0015414 328.5473  89.7848 14.32582147880569"}}, "geometry": {"type": "Point", "coordinates": [138.31499441544588, -11.405473582723902]}}, {"type": "Feature", "properties": {"norad_id": 33758, "name": "COSMOS 2251 DEB", "group": "cosmos-2251-debris", "lat": 71.25457067026922, "lon": -31.412273086887556, "alt_km": 725.3149110719551, "timestamp": "2025-12-17T10:52:54.744661+00:00", "meta": {"OBJECT_NAME": "COSMOS 2251 DEB", "OBJECT_ID": "1993-036F", "EPOCH": "2025-12-16T23:21:59.529024", "MEAN_MOTION": 14.5162035, "ECCENTRICITY": 0.00173201, "INCLINATION": 74.0271, "RA_OF_ASC_NODE": 207.0552, "ARG_OF_PERICENTER": 273.5095, "MEAN_ANOMALY": 200.0592, "EPHEMERIS_TYPE": 0, "CLASSIFICATION_TYPE": "U", "NORAD_CAT_ID": 33758, "ELEMENT_SET_NO": 999, "REV_AT_EPOCH": 88366, "BSTAR": 0.00057613249, "MEAN_MOTION_DOT": 2.286e-05, "MEAN_MOTION_DDOT": 0}, "tle": {"line1": "1 33758U 93036F   25350.97360566  .00002286  00000+0  57613-3 0  9996", "line2": "2 33758  74.0271 207.0552 0017320 273.5095 200.0592 14.51620350883660"}}, "geometry": {"type": "Point", "coordinates": [-31.412273086887556, 71.25457067026922]}}, {"type": "Feature", "properties": {"norad_id": 33760, "name": "COSMOS 2251 DEB", "group": "cosmos-2251-debris", "lat": 45.73561523827352, "lon": 75.72208766494127, "alt_km": 776.025925486796, "timestamp": "2025-12-17T10:52:54.744673+00:00", "meta": {"OBJECT_NAME": "COSMOS 2251 DEB", "OBJECT_ID": "1993-036H", "EPOCH": "2025-12-16T22:54:23.521824", "MEAN_MOTION": 14.35675577, "ECCENTRICITY": 0.00200668, "INCLINATION": 74.0321, "RA_OF_ASC_NODE": 273.7214, "ARG_OF_PERICENTER": 11.0796, "MEAN_ANOMALY": 62.6336, "EPHEMERIS_TYPE": 0, "CLASSIFICATION_TYPE": "U", "NORAD_CAT_ID": 33760, "ELEMENT_SET_NO": 999, "REV_AT_EPOCH": 88185, "BSTAR": 9.1586781e-05, "MEAN_MOTION_DOT": 2.39e-06, "MEAN_MOTION_DDOT": 0}, "tle": {"line1": "1 33760U 93036H   25350.95443891  .00000239  00000+0  91587-4 0  9995", "line2": "2 33760  74.0321 273.7214 0020066  11.0796  62.6336 14.35675577881858"}}, "geometry": {"type": "Point", "coordinates": [75.72208766494127, 45.73561523827352]}}, {"type": "Feature", "properties": {"norad_id": 33761, "name": "COSMOS 2251 DEB", "group": "cosmos-2251-debris", "lat": 2.935379565914916, "lon": 62.576718352407724, "alt_km": 765.9871046833005, "timestamp": "2025-12-17T10:52:54.744684+00:00", "meta": {"OBJECT_NAME": "COSMOS 2251 DEB", "OBJECT_ID": "1993-036J", "EPOCH": "2025-12-17T00:08:50.204832", "MEAN_MOTION": 14.42558369, "ECCENTRICITY": 0.00231728, "INCLINATION": 74.0368, "RA_OF_ASC_NODE": 244.2472, "ARG_OF_PERICENTER": 323.8988, "MEAN_ANOMALY": 51.2285, "EPHEMERIS_TYPE": 0, "CLASSIFICATION_TYPE": "U", "NORAD_CAT_ID": 33761, "ELEMENT_SET_NO": 999, "REV_AT_EPOCH": 88296, "BSTAR": 0.00033809799, "MEAN_MOTION_DOT": 1.099e-05, "MEAN_MOTION_DDOT": 0}, "tle": {"line1": "1 33761U 93036J   25351.00613663  .00001099  00000+0  33810-3 0  9998", "line2": "2 33761  74.0368 244.2472 0023172 323.8988  51.2285 14.42558369882964"}}, "geometry": {"type": "Point", "coordinates": [62.576718352407724, 2.935379565914916]}}, {"type": "Feature", "properties": {"norad_id": 33762, "name": "COSMOS 2251 DEB", "group": "cosmos-2251-debris", "lat": 33.89849409134127, "lon": -47.505801056321864, "alt_km": 767.9610840653831, "timestamp": "2025-12-17T10:52:54.744696+00:00", "meta": {"OBJECT_NAME": "COSMOS 2251 DEB", "OBJECT_ID": "1993-036K", "EPOCH": "2025-12-16T23:16:54.428160", "MEAN_MOTION": 14.33665158, "ECCENTRICITY": 0.00151701, "INCLINATION": 74.0419, "RA_OF_ASC_NODE": 302.2924, "ARG_OF_PERICENTER": 2.7089, "MEAN_ANOMALY": 59.1459, "EPHEMERIS_TYPE": 0, "CLASSIFICATION_TYPE": "U", "NORAD_CAT_ID": 33762, "ELEMENT_SET_NO": 999, "REV_AT_EPOCH": 88108, "BSTAR": 4.5063191e-05, "MEAN_MOTION_DOT": 9.9e-07, "MEAN_MOTION_DDOT": 0}, "tle": {"line1": "1 33762U 93036K   25350.97007440  .00000099  00000+0  45063-4 0  9997", "line2": "2 33762  74.0419 302.2924 0015170   2.7089  59.1459 14.33665158881080"}}, "geometry": {"type": "Point", "coordinates": [-47.505801056321864, 33.89849409134127]}}, {"type": "Feature", "properties": {"norad_id": 33764, "name": "COSMOS 2251 DEB", "group": "cosmos-2251-debris", "lat": -73.38105503816554, "lon": -169.6240137773749, "alt_km": 755.2075491183159, "timestamp": "2025-12-17T10:52:54.744707+00:00", "meta": {"OBJECT_NAME": "COSMOS 2251 DEB", "OBJECT_ID": "1993-036M", "EPOCH": "2025-12-16T22:18:19.138752", "MEAN_MOTION": 14.39519576, "ECCENTRICITY": 0.00237557, "INCLINATION": 74.0336, "RA_OF_ASC_NODE": 264.9209, "ARG_OF_PERICENTER": 229.896, "MEAN_ANOMALY": 210.0217, "EPHEMERIS_TYPE": 0, "CLASSIFICATION_TYPE": "U", "NORAD_CAT_ID": 33764, "ELEMENT_SET_NO": 999, "REV_AT_EPOCH": 88217, "BSTAR": 0.0002825429, "MEAN_MOTION_DOT": 8.58e-06, "MEAN_MOTION_DDOT": 0}, "tle": {"line1": "1 33764U 93036M   25350.92938818  .00000858  00000+0  28254-3 0  9991", "line2": "2 33764  74.0336 264.9209 0023755 229.8960 210.0217 14.39519576882177"}}, "geometry": {"type": "Point", "coordinates": [-169.6240137773749, -73.38105503816554]}}, {"type": "Feature", "properties": {"norad_id": 33765, "name": "COSMOS 2251 DEB", "group": "cosmos-2251-debris", "lat": -38.453219934251415, "lon": -3.4776439181596905, "alt_km": 504.36381073609846, "timestamp": "2025-12-17T10:52:54.744717+00:00", "meta": {"OBJECT_NAME": "COSMOS 2251 DEB", "OBJECT_ID": "1993-036N", "EPOCH": "2025-12-16T21:45:40.576032", "MEAN_MOTION": 15.10237986, "ECCENTRICITY": 0.00649805, "INCLINATION": 74.0074, "RA_OF_ASC_NODE": 164.488, "ARG_OF_PERICENTER": 255.9061, "MEAN_ANOMALY": 233.6904, "EPHEMERIS_TYPE": 0, "CLASSIFICATION_TYPE": "U", "NORAD_CAT_ID": 33765, "ELEMENT_SET_NO": 999, "REV_AT_EPOCH": 89681, "BSTAR": 0.0015229364, "MEAN_MOTION_DOT": 0.00026245, "MEAN_MOTION_DDOT": 0}, "tle": {"line1": "1 33765U 93036N   25350.90671963  .00026245  00000+0  15229-2 0  9990", "line2": "2 33765  74.0074 164.4880 0064980 255.9061 233.6904 15.10237986896815"}}, "geometry": {"type": "Point", "coordinates": [-3.4776439181596905, -38.453219934251415]}}, {"type": "Feature", "properties": {"norad_id": 33766, "name": "COSMOS 2251 DEB", "group": "cosmos-2251-debris", "lat": -54.23131344980118, "lon": -30.411711274433966, "alt_km": 782.462745390897, "timestamp": "2025-12-17T10:52:54.744728+00:00", "meta": {"OBJECT_NAME": "COSMOS 2251 DEB", "OBJECT_ID": "1993-036P", "EPOCH": "2025-12-16T20:23:16.840608", "MEAN_MOTION": 14.34945965, "ECCENTRICITY": 0.0064359, "INCLINATION": 74.1854, "RA_OF_ASC_NODE": 127.516, "ARG_OF_PERICENTER": 329.7536, "MEAN_ANOMALY": 29.9907, "EPHEMERIS_TYPE": 0, "CLASSIFICATION_TYPE": "U", "NORAD_CAT_ID": 33766, "ELEMENT_SET_NO": 999, "REV_AT_EPOCH": 87804, "BSTAR": 0.00044644011, "MEAN_MOTION_DOT": 1.275e-05, "MEAN_MOTION_DDOT": 0}, "tle": {"line1": "1 33766U 93036P   25350.84950047  .00001275  00000+0  44644-3 0  9997", "line2": "2 33766  74.1854 127.5160 0064359 329.7536  29.9907 14.34945965878043"}}, "geometry": {"type": "Point", "coordinates": [-30.411711274433966, -54.23131344980118]}}, {"type": "Feature", "properties": {"norad_id": 33768, "name": "COSMOS 2251 DEB", "group": "cosmos-2251-debris", "lat": -51.6014328111713, "lon": -168.86494570466908, "alt_km": 918.632103206306, "timestamp": "2025-12-17T10:52:54.744739+00:00", "meta": {"OBJECT_NAME": "COSMOS 2251 DEB", "OBJECT_ID": "1993-036R", "EPOCH": "2025-12-16T23:14:18.208320", "MEAN_MOTION": 13.58458477, "ECCENTRICITY": 0.03665427, "INCLINATION": 74.0673, "RA_OF_ASC_NODE": 213.0435, "ARG_OF_PERICENTER": 9.8648, "MEAN_ANOMALY": 87.6367, "EPHEMERIS_TYPE": 0, "CLASSIFICATION_TYPE": "U", "NORAD_CAT_ID": 33768, "ELEMENT_SET_NO": 999, "REV_AT_EPOCH": 83353, "BSTAR": 0.0002985581, "MEAN_MOTION_DOT": 3.16e-06, "MEAN_MOTION_DDOT": 0}, "tle": {"line1": "1 33768U 93036R   25350.96826630  .00000316  00000+0  29856-3 0  9995", "line2": "2 33768  74.0673 213.0435 0366542   9.8648  87.6367 13.58458477833536"}}, "geometry": {"type": "Point", "coordinates": [-168.86494570466908, -51.6014328111713]}}]}